COSMO-SKYMED 1          
1 31598U 07023A   26185.57900734  .00003023  00000+0  26667-3 0  9992
2 31598  97.8851  17.5817 0001161  83.5997 276.5356 14.97186923 32396
COMS 1                  
1 36744U 10032A   26185.29452096 -.00000123  00000+0  00000+0 0  9994
2 36744   4.8462  75.1543 0011684  14.0017 304.5143  0.99169316 51255
CBERS 4                 
1 40336U 14079A   26185.60207362  .00000370  00000+0  14328-3 0  9995
2 40336  98.3519 241.8871 0001260  51.1520 308.9779 14.35514992606454
CAS500-1                
1 47932U 21022A   26185.63819314  .00010231  00000+0  47528-3 0  9994
2 47932  97.3877  80.5366 0003767 211.9501 148.1506 15.20181114293416
CO3D 3                  
1 64900U 25156B   26185.63067312  .00007596  00000+0  35350-3 0  9993
2 64900  97.4328 264.0730 0001861 107.8356 252.3082 15.20217635 52182
CO3D 4                  
1 64901U 25156C   26185.63081994  .00002324  00000+0  11041-3 0  9991
2 64901  97.4330 264.0732 0000998 173.5402 186.5846 15.20209957 52184
CO3D 2                  
1 64902U 25156D   26185.46583673  .00005203  00000+0  24332-3 0  9990
2 64902  97.4333 263.8089 0001386  94.0340 266.1054 15.20201533 52155
CO3D 1                  
1 64903U 25156E   26185.46599053  .00005125  00000+0  23970-3 0  9990
2 64903  97.4331 263.8083 0001184 112.9737 247.1623 15.20202252 52154
CAS500-3                
1 66655U 25274F   26185.56066281  .00001912  00000+0  21226-3 0  9992
2 66655  97.7441 113.2166 0006814  65.8712 294.3217 14.88367258 32735
CAS500-2                
1 69013U 26100AK  26185.45804681  .00009144  00000+0  41725-3 0  9995
2 69013  97.3880  82.9905 0008716 335.8740  24.2086 15.20803068  9432
