{
 "generated_at": "2026-07-05T07:57:19Z",
 "sources": [
  {
   "name": "CelesTrak",
   "url": "https://celestrak.org/NORAD/elements/",
   "license": "frei verfügbar; Attribution. Ursprünglich USSPACECOM/Space-Track."
  },
  {
   "name": "GCAT (J. McDowell, planet4589.org)",
   "url": "https://planet4589.org/space/gcat/",
   "license": "CC-BY 4.0"
  }
 ],
 "satellites": [
  {
   "norad": 47932,
   "name": "CAS500-1",
   "intl": "2021-022A",
   "group": "resource",
   "gcat": {
    "class": "C",
    "category": "IMG",
    "owner": "KARI",
    "state": "KR"
   },
   "omm": {
    "OBJECT_NAME": "CAS500-1",
    "OBJECT_ID": "2021-022A",
    "EPOCH": "2026-07-04T15:18:59.887296",
    "MEAN_MOTION": 15.20181114,
    "ECCENTRICITY": 0.00037673,
    "INCLINATION": 97.3877,
    "RA_OF_ASC_NODE": 80.5366,
    "ARG_OF_PERICENTER": 211.9501,
    "MEAN_ANOMALY": 148.1506,
    "EPHEMERIS_TYPE": 0,
    "CLASSIFICATION_TYPE": "U",
    "NORAD_CAT_ID": 47932,
    "ELEMENT_SET_NO": 999,
    "REV_AT_EPOCH": 29341,
    "BSTAR": 0.00047527819,
    "MEAN_MOTION_DOT": 0.00010231,
    "MEAN_MOTION_DDOT": 0
   }
  },
  {
   "norad": 69013,
   "name": "CAS500-2",
   "intl": "2026-100AK",
   "group": "resource",
   "gcat": {
    "class": "C",
    "category": "TECH",
    "owner": "KAIST",
    "state": "KR"
   },
   "omm": {
    "OBJECT_NAME": "CAS500-2",
    "OBJECT_ID": "2026-100AK",
    "EPOCH": "2026-07-04T10:59:35.244384",
    "MEAN_MOTION": 15.20803068,
    "ECCENTRICITY": 0.00087162,
    "INCLINATION": 97.388,
    "RA_OF_ASC_NODE": 82.9905,
    "ARG_OF_PERICENTER": 335.874,
    "MEAN_ANOMALY": 24.2086,
    "EPHEMERIS_TYPE": 0,
    "CLASSIFICATION_TYPE": "U",
    "NORAD_CAT_ID": 69013,
    "ELEMENT_SET_NO": 999,
    "REV_AT_EPOCH": 943,
    "BSTAR": 0.00041725102,
    "MEAN_MOTION_DOT": 0.00009144,
    "MEAN_MOTION_DDOT": 0
   }
  },
  {
   "norad": 66655,
   "name": "CAS500-3",
   "intl": "2025-274F",
   "group": "resource",
   "gcat": {
    "class": "B",
    "category": "IMG",
    "owner": "KAIST",
    "state": "KR"
   },
   "omm": {
    "OBJECT_NAME": "CAS500-3",
    "OBJECT_ID": "2025-274F",
    "EPOCH": "2026-07-04T13:27:21.266784",
    "MEAN_MOTION": 14.88367258,
    "ECCENTRICITY": 0.00068144,
    "INCLINATION": 97.7441,
    "RA_OF_ASC_NODE": 113.2166,
    "ARG_OF_PERICENTER": 65.8712,
    "MEAN_ANOMALY": 294.3217,
    "EPHEMERIS_TYPE": 0,
    "CLASSIFICATION_TYPE": "U",
    "NORAD_CAT_ID": 66655,
    "ELEMENT_SET_NO": 999,
    "REV_AT_EPOCH": 3273,
    "BSTAR": 0.00021226084,
    "MEAN_MOTION_DOT": 0.00001912,
    "MEAN_MOTION_DDOT": 0
   }
  },
  {
   "norad": 40336,
   "name": "CBERS 4",
   "intl": "2014-079A",
   "group": "resource",
   "gcat": {
    "class": "C",
    "category": "IMG",
    "owner": "ZZWYZ/INPE",
    "state": "CN"
   },
   "omm": {
    "OBJECT_NAME": "CBERS 4",
    "OBJECT_ID": "2014-079A",
    "EPOCH": "2026-07-04T14:26:59.160768",
    "MEAN_MOTION": 14.35514992,
    "ECCENTRICITY": 0.00012608,
    "INCLINATION": 98.3519,
    "RA_OF_ASC_NODE": 241.8871,
    "ARG_OF_PERICENTER": 51.152,
    "MEAN_ANOMALY": 308.9779,
    "EPHEMERIS_TYPE": 0,
    "CLASSIFICATION_TYPE": "U",
    "NORAD_CAT_ID": 40336,
    "ELEMENT_SET_NO": 999,
    "REV_AT_EPOCH": 60645,
    "BSTAR": 0.00014327798,
    "MEAN_MOTION_DOT": 0.0000037,
    "MEAN_MOTION_DDOT": 0
   }
  },
  {
   "norad": 64903,
   "name": "CO3D 1",
   "intl": "2025-156E",
   "group": "resource",
   "gcat": {
    "class": "C",
    "category": "SCI",
    "owner": "CNES",
    "state": "F"
   },
   "omm": {
    "OBJECT_NAME": "CO3D 1",
    "OBJECT_ID": "2025-156E",
    "EPOCH": "2026-07-04T11:11:01.581792",
    "MEAN_MOTION": 15.20202252,
    "ECCENTRICITY": 0.00011844,
    "INCLINATION": 97.4331,
    "RA_OF_ASC_NODE": 263.8083,
    "ARG_OF_PERICENTER": 112.9737,
    "MEAN_ANOMALY": 247.1623,
    "EPHEMERIS_TYPE": 0,
    "CLASSIFICATION_TYPE": "U",
    "NORAD_CAT_ID": 64903,
    "ELEMENT_SET_NO": 999,
    "REV_AT_EPOCH": 5215,
    "BSTAR": 0.00023970427,
    "MEAN_MOTION_DOT": 0.00005125,
    "MEAN_MOTION_DDOT": 0
   }
  },
  {
   "norad": 64902,
   "name": "CO3D 2",
   "intl": "2025-156D",
   "group": "resource",
   "gcat": {
    "class": "C",
    "category": "SCI",
    "owner": "CNES",
    "state": "F"
   },
   "omm": {
    "OBJECT_NAME": "CO3D 2",
    "OBJECT_ID": "2025-156D",
    "EPOCH": "2026-07-04T11:10:48.293472",
    "MEAN_MOTION": 15.20201533,
    "ECCENTRICITY": 0.00013865,
    "INCLINATION": 97.4333,
    "RA_OF_ASC_NODE": 263.8089,
    "ARG_OF_PERICENTER": 94.034,
    "MEAN_ANOMALY": 266.1054,
    "EPHEMERIS_TYPE": 0,
    "CLASSIFICATION_TYPE": "U",
    "NORAD_CAT_ID": 64902,
    "ELEMENT_SET_NO": 999,
    "REV_AT_EPOCH": 5215,
    "BSTAR": 0.00024332082,
    "MEAN_MOTION_DOT": 0.00005203,
    "MEAN_MOTION_DDOT": 0
   }
  },
  {
   "norad": 64900,
   "name": "CO3D 3",
   "intl": "2025-156B",
   "group": "resource",
   "gcat": {
    "class": "C",
    "category": "SCI",
    "owner": "CNES",
    "state": "F"
   },
   "omm": {
    "OBJECT_NAME": "CO3D 3",
    "OBJECT_ID": "2025-156B",
    "EPOCH": "2026-07-04T15:08:10.157568",
    "MEAN_MOTION": 15.20217635,
    "ECCENTRICITY": 0.0001861,
    "INCLINATION": 97.4328,
    "RA_OF_ASC_NODE": 264.073,
    "ARG_OF_PERICENTER": 107.8356,
    "MEAN_ANOMALY": 252.3082,
    "EPHEMERIS_TYPE": 0,
    "CLASSIFICATION_TYPE": "U",
    "NORAD_CAT_ID": 64900,
    "ELEMENT_SET_NO": 999,
    "REV_AT_EPOCH": 5218,
    "BSTAR": 0.00035350371,
    "MEAN_MOTION_DOT": 0.00007596,
    "MEAN_MOTION_DDOT": 0
   }
  },
  {
   "norad": 64901,
   "name": "CO3D 4",
   "intl": "2025-156C",
   "group": "resource",
   "gcat": {
    "class": "C",
    "category": "SCI",
    "owner": "CNES",
    "state": "F"
   },
   "omm": {
    "OBJECT_NAME": "CO3D 4",
    "OBJECT_ID": "2025-156C",
    "EPOCH": "2026-07-04T15:08:22.842816",
    "MEAN_MOTION": 15.20209957,
    "ECCENTRICITY": 0.00009985,
    "INCLINATION": 97.433,
    "RA_OF_ASC_NODE": 264.0732,
    "ARG_OF_PERICENTER": 173.5402,
    "MEAN_ANOMALY": 186.5846,
    "EPHEMERIS_TYPE": 0,
    "CLASSIFICATION_TYPE": "U",
    "NORAD_CAT_ID": 64901,
    "ELEMENT_SET_NO": 999,
    "REV_AT_EPOCH": 5218,
    "BSTAR": 0.00011040856,
    "MEAN_MOTION_DOT": 0.00002324,
    "MEAN_MOTION_DDOT": 0
   }
  },
  {
   "norad": 36744,
   "name": "COMS 1",
   "intl": "2010-032A",
   "group": "weather",
   "gcat": {
    "class": null,
    "category": null,
    "owner": null,
    "state": null
   },
   "omm": {
    "OBJECT_NAME": "COMS 1",
    "OBJECT_ID": "2010-032A",
    "EPOCH": "2026-07-04T07:04:06.610944",
    "MEAN_MOTION": 0.99169316,
    "ECCENTRICITY": 0.00116841,
    "INCLINATION": 4.8462,
    "RA_OF_ASC_NODE": 75.1543,
    "ARG_OF_PERICENTER": 14.0017,
    "MEAN_ANOMALY": 304.5143,
    "EPHEMERIS_TYPE": 0,
    "CLASSIFICATION_TYPE": "U",
    "NORAD_CAT_ID": 36744,
    "ELEMENT_SET_NO": 999,
    "REV_AT_EPOCH": 5125,
    "BSTAR": 0,
    "MEAN_MOTION_DOT": -0.00000123,
    "MEAN_MOTION_DDOT": 0
   }
  },
  {
   "norad": 31598,
   "name": "COSMO-SKYMED 1",
   "intl": "2007-023A",
   "group": "resource",
   "gcat": {
    "class": "D",
    "category": "IMG-R",
    "owner": "ASI",
    "state": "I"
   },
   "omm": {
    "OBJECT_NAME": "COSMO-SKYMED 1",
    "OBJECT_ID": "2007-023A",
    "EPOCH": "2026-07-04T13:53:46.234176",
    "MEAN_MOTION": 14.97186923,
    "ECCENTRICITY": 0.00011613,
    "INCLINATION": 97.8851,
    "RA_OF_ASC_NODE": 17.5817,
    "ARG_OF_PERICENTER": 83.5997,
    "MEAN_ANOMALY": 276.5356,
    "EPHEMERIS_TYPE": 0,
    "CLASSIFICATION_TYPE": "U",
    "NORAD_CAT_ID": 31598,
    "ELEMENT_SET_NO": 999,
    "REV_AT_EPOCH": 3239,
    "BSTAR": 0.00026666761,
    "MEAN_MOTION_DOT": 0.00003023,
    "MEAN_MOTION_DDOT": 0
   }
  }
 ]
}
